OBJECT_NAME,OBJECT_ID,EPOCH,MEAN_MOTION,ECCENTRICITY,INCLINATION,RA_OF_ASC_NODE,ARG_OF_PERICENTER,MEAN_ANOMALY,EPHEMERIS_TYPE,CLASSIFICATION_TYPE,NORAD_CAT_ID,ELEMENT_SET_NO,REV_AT_EPOCH,BSTAR,MEAN_MOTION_DOT,MEAN_MOTION_DDOT
ONEWEB-0012,2019-010A,2026-06-18T22:12:09.397728,13.16595227,.00018893,87.9097,228.4404,85.5861,274.5486,0,U,44057,999,35179,.17161744E-3,.78E-6,0
ONEWEB-0010,2019-010B,2026-06-18T20:59:11.879520,13.16595004,.00018808,87.9098,228.4461,106.3502,253.7836,0,U,44058,999,35183,-.12470517E-3,-.35E-6,0
ONEWEB-0008,2019-010C,2026-06-18T16:07:21.758304,13.16595612,.00023308,87.9093,228.4819,97.6434,262.4962,0,U,44059,999,35192,.12415875E-4,.18E-6,0
ONEWEB-0007,2019-010D,2026-06-18T22:28:12.039744,13.15549180,.00016465,87.9002,258.8727,100.1375,259.9941,0,U,44060,999,35160,.19049844E-3,.85E-6,0
ONEWEB-0006,2019-010E,2026-06-18T22:33:53.151264,13.15549719,.00018553,87.9014,258.8363,103.7612,256.3725,0,U,44061,999,35165,.22340961E-3,.97E-6,0
ONEWEB-0011,2019-010F,2026-06-18T18:09:12.608352,13.15547508,.00021102,87.9013,258.8827,105.1541,254.9823,0,U,44062,999,35162,.80173773E-4,.43E-6,0
ONEWEB-0013,2020-008A,2026-06-18T22:15:34.690176,13.09455754,.0002174,87.8517,52.4743,53.6429,306.4899,0,U,45131,999,30629,-.20090418E-2,-.679E-5,0
ONEWEB-0017,2020-008B,2026-06-18T21:48:29.169216,13.10369979,.00017002,87.8832,35.9262,89.1579,270.9743,0,U,45132,999,30817,-.85778148E-3,-.287E-5,0
ONEWEB-0020,2020-008C,2026-06-18T21:05:09.844224,13.10464045,.00017024,87.8831,35.9302,83.2668,276.8653,0,U,45133,999,30856,.10037242E-1,.3522E-4,0
ONEWEB-0021,2020-008D,2026-06-18T21:26:49.544736,13.10416213,.00019014,87.8833,35.9428,81.4887,278.6456,0,U,45134,999,30887,.70375335E-2,.2472E-4,0
ONEWEB-0023,2020-008F,2026-06-18T21:42:27.542016,13.10387050,.00019204,87.8839,35.9233,78.8943,281.2400,0,U,45136,999,30830,.68332825E-3,.251E-5,0
ONEWEB-0024,2020-008G,2026-06-18T21:02:55.023072,13.10467680,.00013793,87.8841,35.9212,83.7536,276.3748,0,U,45137,999,30846,.15081765E-1,.5288E-4,0
ONEWEB-0025,2020-008H,2026-06-18T21:02:31.738272,13.10452938,.00016744,87.8842,35.9112,97.5036,262.6281,0,U,45138,999,30879,.21605276E-1,.757E-4,0
ONEWEB-0026,2020-008J,2026-06-18T20:05:23.578080,13.11415017,.00018275,87.8882,20.7399,90.6759,269.4578,0,U,45139,999,31132,-.12763351E-2,-.44E-5,0
ONEWEB-0028,2020-008K,2026-06-18T23:09:44.430048,13.11414169,.00019188,87.8879,20.7225,68.8474,291.2859,0,U,45140,999,30885,.12565816E-2,.458E-5,0
ONEWEB-0032,2020-008L,2026-06-18T21:51:04.516416,13.10370709,.00016966,87.8816,35.9267,57.1048,303.0242,0,U,45141,999,30852,-.26939449E-2,-.928E-5,0
ONEWEB-0033,2020-008M,2026-06-18T08:25:07.088736,13.10434501,.0001724,87.8847,36.0435,95.2968,264.8356,0,U,45142,999,30836,.12783E-1,.4481E-4,0
ONEWEB-0035,2020-008N,2026-06-18T21:43:52.907808,13.10380243,.00017329,87.8832,35.9284,85.9611,274.1715,0,U,45143,999,30816,.99295524E-3,.359E-5,0
ONEWEB-0036,2020-008P,2026-06-18T08:18:52.384032,13.09981340,.0001946,87.8848,36.0512,77.7068,282.4277,0,U,45144,999,30851,-.16858E-2,-.572E-5,0
ONEWEB-0038,2020-008Q,2026-06-18T20:20:14.508096,13.11417542,.00002441,87.8898,20.7467,25.1839,334.9301,0,U,45145,999,31054,-.19247342E-2,-.669E-5,0
ONEWEB-0039,2020-008R,2026-06-18T01:10:16.222368,13.10374808,.00018774,87.8830,36.0966,66.6167,293.5157,0,U,45146,999,30827,-.15006644E-2,-.511E-5,0
ONEWEB-0040,2020-008S,2026-06-16T21:31:21.696960,13.10390462,.00016365,87.8826,36.3351,79.9024,280.2288,0,U,45147,999,30782,-.15988012E-2,-.546E-5,0
ONEWEB-0043,2020-008U,2026-06-18T04:42:49.094784,13.10438915,.0001916,87.8816,36.0690,62.7532,297.3791,0,U,45149,999,30831,.14747E-1,.5168E-4,0
ONEWEB-0044,2020-008V,2026-06-18T21:53:17.181888,13.10362105,.00018944,87.8842,35.9237,78.1754,281.9586,0,U,45150,999,30870,-.2800336E-2,-.965E-5,0
ONEWEB-0045,2020-008W,2026-06-18T20:12:43.302240,13.11415490,.00017678,87.8894,20.7303,82.3094,277.8235,0,U,45151,999,31062,-.15122634E-2,-.523E-5,0
ONEWEB-0047,2020-008X,2026-06-18T21:43:27.711840,13.10384679,.00016325,87.8840,35.9246,86.1447,273.9867,0,U,45152,999,30842,.85030464E-3,.31E-5,0
ONEWEB-0048,2020-008Y,2026-06-18T21:36:27.827712,13.10392942,.0001819,87.8833,35.9465,84.2845,275.8490,0,U,45153,999,30803,.39557748E-2,.1394E-4,0
ONEWEB-0049,2020-008Z,2026-06-18T08:51:23.336640,13.10387405,.0002219,87.8831,36.0416,80.5043,279.6335,0,U,45154,999,30818,.24909E-2,.882E-5,0
ONEWEB-0051,2020-008AA,2026-06-18T20:10:17.241312,13.11417904,.000185,87.8886,20.7381,85.4028,274.7311,0,U,45155,999,31130,-.12958733E-2,-.447E-5,0
ONEWEB-0052,2020-008AB,2026-06-18T16:40:28.344864,13.10323818,.00021813,87.8836,35.9624,81.5939,278.5436,0,U,45156,999,30813,-.91547052E-2,-.318E-4,0
