ONEWEB-0012             
1 44057U 19010A   26169.92510877  .00000078  00000+0  17162-3 0  9998
2 44057  87.9097 228.4404 0001889  85.5861 274.5486 13.16595227351797
ONEWEB-0010             
1 44058U 19010B   26169.87444305 -.00000035  00000+0 -12471-3 0  9998
2 44058  87.9098 228.4461 0001880 106.3502 253.7836 13.16595004351833
ONEWEB-0008             
1 44059U 19010C   26169.67177961  .00000018  00000+0  12416-4 0  9997
2 44059  87.9093 228.4819 0002330  97.6434 262.4962 13.16595612351925
ONEWEB-0007             
1 44060U 19010D   26169.93625046  .00000085  00000+0  19050-3 0  9994
2 44060  87.9002 258.8727 0001646 100.1375 259.9941 13.15549180351606
ONEWEB-0006             
1 44061U 19010E   26169.94019851  .00000097  00000+0  22341-3 0  9997
2 44061  87.9014 258.8363 0001855 103.7612 256.3725 13.15549719351655
ONEWEB-0011             
1 44062U 19010F   26169.75639593  .00000043  00000+0  80174-4 0  9998
2 44062  87.9013 258.8827 0002110 105.1541 254.9823 13.15547508351626
ONEWEB-0013             
1 45131U 20008A   26169.92748484 -.00000679  00000+0 -20090-2 0  9990
2 45131  87.8517  52.4743 0002174  53.6429 306.4899 13.09455754306292
ONEWEB-0017             
1 45132U 20008B   26169.90867094 -.00000287  00000+0 -85778-3 0  9998
2 45132  87.8832  35.9262 0001700  89.1579 270.9743 13.10369979308176
ONEWEB-0020             
1 45133U 20008C   26169.87858616  .00003522  00000+0  10037-1 0  9992
2 45133  87.8831  35.9302 0001702  83.2668 276.8653 13.10464045308565
ONEWEB-0021             
1 45134U 20008D   26169.89362899  .00002472  00000+0  70375-2 0  9993
2 45134  87.8833  35.9428 0001901  81.4887 278.6456 13.10416213308870
ONEWEB-0023             
1 45136U 20008F   26169.90448544  .00000251  00000+0  68333-3 0  9994
2 45136  87.8839  35.9233 0001920  78.8943 281.2400 13.10387050308309
ONEWEB-0024             
1 45137U 20008G   26169.87702573  .00005288  00000+0  15082-1 0  9992
2 45137  87.8841  35.9212 0001379  83.7536 276.3748 13.10467680308466
ONEWEB-0025             
1 45138U 20008H   26169.87675623  .00007570  00000+0  21605-1 0  9992
2 45138  87.8842  35.9112 0001674  97.5036 262.6281 13.10452938308799
ONEWEB-0026             
1 45139U 20008J   26169.83707845 -.00000440  00000+0 -12763-2 0  9998
2 45139  87.8882  20.7399 0001827  90.6759 269.4578 13.11415017311324
ONEWEB-0028             
1 45140U 20008K   26169.96509757  .00000458  00000+0  12566-2 0  9994
2 45140  87.8879  20.7225 0001918  68.8474 291.2859 13.11414169308858
ONEWEB-0032             
1 45141U 20008L   26169.91046894 -.00000928  00000+0 -26939-2 0  9991
2 45141  87.8816  35.9267 0001696  57.1048 303.0242 13.10370709308527
ONEWEB-0033             
1 45142U 20008M   26169.35077649  .00004481  00000+0  12783-1 0  9999
2 45142  87.8847  36.0435 0001724  95.2968 264.8356 13.10434501308360
ONEWEB-0035             
1 45143U 20008N   26169.90547347  .00000359  00000+0  99296-3 0  9994
2 45143  87.8832  35.9284 0001732  85.9611 274.1715 13.10380243308169
ONEWEB-0036             
1 45144U 20008P   26169.34643963 -.00000572  00000+0 -16858-2 0  9995
2 45144  87.8848  36.0512 0001946  77.7068 282.4277 13.09981340308512
ONEWEB-0038             
1 45145U 20008Q   26169.84739014 -.00000669  00000+0 -19247-2 0  9996
2 45145  87.8898  20.7467 0000244  25.1839 334.9301 13.11417542310548
ONEWEB-0039             
1 45146U 20008R   26169.04879887 -.00000511  00000+0 -15007-2 0  9998
2 45146  87.8830  36.0966 0001877  66.6167 293.5157 13.10374808308278
ONEWEB-0040             
1 45147U 20008S   26167.89677890 -.00000546  00000+0 -15988-2 0  9996
2 45147  87.8826  36.3351 0001636  79.9024 280.2288 13.10390462307829
ONEWEB-0043             
1 45149U 20008U   26169.19640156  .00005168  00000+0  14747-1 0  9992
2 45149  87.8816  36.0690 0001916  62.7532 297.3791 13.10438915308317
ONEWEB-0044             
1 45150U 20008V   26169.91200442 -.00000965  00000+0 -28003-2 0  9997
2 45150  87.8842  35.9237 0001894  78.1754 281.9586 13.10362105308706
ONEWEB-0045             
1 45151U 20008W   26169.84216785 -.00000523  00000+0 -15123-2 0  9996
2 45151  87.8894  20.7303 0001767  82.3094 277.8235 13.11415490310629
ONEWEB-0047             
1 45152U 20008X   26169.90518185  .00000310  00000+0  85030-3 0  9990
2 45152  87.8840  35.9246 0001632  86.1447 273.9867 13.10384679308426
ONEWEB-0048             
1 45153U 20008Y   26169.90032208  .00001394  00000+0  39558-2 0  9994
2 45153  87.8833  35.9465 0001819  84.2845 275.8490 13.10392942308032
ONEWEB-0049             
1 45154U 20008Z   26169.36902010  .00000882  00000+0  24909-2 0  9997
2 45154  87.8831  36.0416 0002219  80.5043 279.6335 13.10387405308187
ONEWEB-0051             
1 45155U 20008AA  26169.84047733 -.00000447  00000+0 -12959-2 0  9994
2 45155  87.8886  20.7381 0001850  85.4028 274.7311 13.11417904311303
ONEWEB-0052             
1 45156U 20008AB  26169.69477251 -.00003180  00000+0 -91547-2 0  9997
2 45156  87.8836  35.9624 0002181  81.5939 278.5436 13.10323818308139
